ONEWEB-0012             
1 44057U 19010A   25363.24797061  .00000151  00000+0  36129-3 0  9996
2 44057  87.9034 262.6267 0001989  78.7669 281.3686 13.16592926329208
ONEWEB-0010             
1 44058U 19010B   25363.19731248  .00000058  00000+0  11886-3 0  9995
2 44058  87.9045 262.6280 0001481  62.3762 297.7519 13.16593758329240
ONEWEB-0008             
1 44059U 19010C   25363.14664344 -.00000019  00000+0 -82917-4 0  9996
2 44059  87.9045 262.6356 0001528  81.5388 278.5916 13.16593240329350
ONEWEB-0006             
1 44061U 19010E   25363.35487728  .00000053  00000+0  10767-3 0  9990
2 44061  87.9011 293.0669 0001749  68.8377 291.2940 13.15548335329096
ONEWEB-0011             
1 44062U 19010F   25363.32316691  .00000057  00000+0  11803-3 0  9994
2 44062  87.9011 293.0822 0001548  77.5489 282.5814 13.15551349329087
ONEWEB-0017             
1 45132U 20008B   25363.18065599  .00000722  00000+0  20331-2 0  9998
2 45132  87.8796  70.1655 0001515  98.5942 261.5358 13.10373985285684
